NORAD_CAT_ID,OBJECT_NAME,OBJECT_TYPE,EPOCH,MEAN_MOTION,ECCENTRICITY,INCLINATION,RA_OF_ASC_NODE,ARG_OF_PERICENTER,MEAN_ANOMALY,BSTAR,MEAN_MOTION_DOT,MEAN_MOTION_DDOT,TLE_LINE0,TLE_LINE1,TLE_LINE2,SEMIMAJOR_AXIS,PERIOD,APOGEE,PERIGEE,DECAYED
51716.0,STARLINK-3543,PAYLOAD,2022-10-10 18:25:07,15.08838818,0.0001546,53.2158,162.2967,56.8131,303.3009,0.00018939,2.727e-05,0.0,0 STARLINK-3543,1 51716U 22016C   22283.76744283  .00002727  00000-0  18939-3 0  9990,2 51716  53.2158 162.2967 0001546  56.8131 303.3009 15.08838818 35331,6917.884,95.438,540.819,538.679,0.0
51716.0,STARLINK-3543,PAYLOAD,2022-10-11 00:46:39,15.08838386,0.0001595999999999,53.2156,161.1069,54.9788,305.1353,8.204299999999999e-05,1.018e-05,0.0,0 STARLINK-3543,1 51716U 22016C   22284.03240296  .00001018  00000-0  82043-4 0  9996,2 51716  53.2156 161.1069 0001596  54.9788 305.1353 15.08838386 35378,6917.885,95.438,540.854,538.646,0.0
51716.0,STARLINK-3543,PAYLOAD,2022-10-11 16:40:32,15.08819115,0.0001739,53.2157,158.1334,55.1544,304.9611,-4.2916e-05,-9.71e-06,0.0,0 STARLINK-3543,1 51716U 22016C   22284.69481629 -.00000971  00000-0 -42916-4 0  9999,2 51716  53.2157 158.1334 0001739  55.1544 304.9611 15.08819115 36534,6917.944,95.439,541.012,538.606,0.0
51716.0,STARLINK-3543,PAYLOAD,2022-10-12 00:37:29,15.08820549,0.0001727,53.2166,156.6454,52.0189,308.0959,-0.00019961,-3.462e-05,0.0,0 STARLINK-3543,1 51716U 22016C   22285.02603324 -.00003462  00000-0 -19961-3 0  9996,2 51716  53.2166 156.6454 0001727  52.0189 308.0959 15.08820549 36586,6917.94,95.439,541.0,538.61,0.0
51716.0,STARLINK-3543,PAYLOAD,2022-10-12 08:34:24,15.08826669,0.0001696,53.2168,155.1575,49.8937,310.2204,-0.00013399,-2.419e-05,0.0,0 STARLINK-3543,1 51716U 22016C   22285.35723074 -.00002419  00000-0 -13399-3 0  9997,2 51716  53.2168 155.1575 0001696  49.8937 310.2204 15.08826669 36639,6917.920999999999,95.438,540.9590000000002,538.613,0.0
51716.0,STARLINK-3543,PAYLOAD,2022-10-12 16:31:20,15.08823814,0.0001619,53.216,153.6722,50.8404,309.2732,3.4666e-05,2.64e-06,0.0,0 STARLINK-3543,1 51716U 22016C   22285.68843244  .00000264  00000-0  34666-4 0  9990,2 51716  53.2160 153.6722 0001619  50.8404 309.2732 15.08823814 35625,6917.93,95.439,540.915,538.675,0.0
51716.0,STARLINK-3543,PAYLOAD,2022-10-13 03:39:02,15.0883274,0.0001664,53.217,151.591,54.0178,306.0968,0.00016609,2.356e-05,0.0,0 STARLINK-3543,1 51716U 22016C   22286.15210911  .00002356  00000-0  16609-3 0  9992,2 51716  53.2170 151.5910 0001664  54.0178 306.0968 15.08832740 36755,6917.903,95.438,540.919,538.616,0.0
51716.0,STARLINK-3543,PAYLOAD,2022-10-13 08:25:10,15.08851643,0.0001708,53.2169,150.69899999999996,56.4781,303.6374,-1.6096e-06,-3.14e-06,0.0,0 STARLINK-3543,1 51716U 22016C   22286.35082000 -.00000314  00000-0 -16096-5 0  9996,2 51716  53.2169 150.6990 0001708  56.4781 303.6374 15.08851643 35729,6917.845,95.437,540.891,538.528,0.0
51716.0,STARLINK-3543,PAYLOAD,2022-10-13 19:32:53,15.0884534,0.0001835,53.2155,148.6177,57.4941,302.6228,0.00055623,8.577e-05,0.0,0 STARLINK-3543,1 51716U 22016C   22286.81450986  .00008577  00000-0  55623-3 0  9993,2 51716  53.2155 148.6177 0001835  57.4941 302.6228 15.08845340 36857,6917.864000000001,95.437,540.998,538.46,0.0
51716.0,STARLINK-3543,PAYLOAD,2022-10-13 21:08:16,15.08848948,0.0001838,53.2155,148.3203,57.833,302.284,0.00061531,9.521e-05,0.0,0 STARLINK-3543,1 51716U 22016C   22286.88074932  .00009521  00000-0  61531-3 0  9998,2 51716  53.2155 148.3203 0001838  57.8330 302.2840 15.08848948 35800,6917.853,95.437,540.99,538.447,0.0
51716.0,STARLINK-3543,PAYLOAD,2022-10-14 08:15:58,15.08855686,0.0001876999999999,53.2146,146.2386,57.6704,302.447,0.00042966,6.559e-05,0.0,0 STARLINK-3543,1 51716U 22016C   22287.34442683  .00006559  00000-0  42966-3 0  9991,2 51716  53.2146 146.2386 0001877  57.6704 302.4470 15.08855686 35870,6917.831999999999,95.437,540.996,538.399,0.0
51716.0,STARLINK-3543,PAYLOAD,2022-10-14 20:59:02,15.08861283,0.0001993,53.215,143.8598,59.3673,300.7515,0.00031348,4.707e-05,0.0,0 STARLINK-3543,1 51716U 22016C   22287.87434011  .00004707  00000-0  31348-3 0  9990,2 51716  53.2150 143.8598 0001993  59.3673 300.7515 15.08861283 35956,6917.815,95.436,541.059,538.302,0.0
51716.0,STARLINK-3543,PAYLOAD,2022-10-15 19:14:26,15.08846188,0.0001867,53.2154,139.6965,57.4077,302.7095,-0.00011353,-2.095e-05,0.0,0 STARLINK-3543,1 51716U 22016C   22288.80169549 -.00002095  00000-0 -11353-3 0  9999,2 51716  53.2154 139.6965 0001867  57.4077 302.7095 15.08846188 36096,6917.861,95.437,541.018,538.435,0.0
51716.0,STARLINK-3543,PAYLOAD,2022-10-16 00:00:35,15.08845981,0.0001899999999999,53.2151,138.8041,58.6763,301.4415,-0.00011794,-2.165e-05,0.0,0 STARLINK-3543,1 51716U 22016C   22289.00041404 -.00002165  00000-0 -11794-3 0  9998,2 51716  53.2151 138.8041 0001900  58.6763 301.4415 15.08845981 36128,6917.861999999999,95.437,541.0419999999998,538.413,0.0
51716.0,STARLINK-3543,PAYLOAD,2022-10-16 19:05:13,15.08840624,0.000178,53.2152,135.2354,55.9679,304.1482,-2.8281e-05,-7.38e-06,0.0,0 STARLINK-3543,1 51716U 22016C   22289.79529568 -.00000738  00000-0 -28281-4 0  9990,2 51716  53.2152 135.2354 0001780  55.9679 304.1482 15.08840624 36245,6917.878000000002,95.438,540.975,538.512,0.0
51716.0,STARLINK-3543,PAYLOAD,2022-10-17 01:26:46,15.08840564,0.0001799,53.2155,134.0464,54.6021,305.5139,-4.4302e-05,-9.93e-06,0.0,0 STARLINK-3543,1 51716U 22016C   22290.06025547 -.00000993  00000-0 -44302-4 0  9995,2 51716  53.2155 134.0464 0001799  54.6021 305.5139 15.08840564 37343,6917.879,95.438,540.988,538.499,0.0
51716.0,STARLINK-3543,PAYLOAD,2022-10-17 12:34:27,15.0884283,0.0001839,53.2154,131.9649,54.5509,305.5655,1.4014000000000008e-05,-6.5e-07,0.0,0 STARLINK-3543,1 51716U 22016C   22290.52393378 -.00000065  00000-0  14014-4 0  9992,2 51716  53.2154 131.9649 0001839  54.5509 305.5655 15.08842830 36359,6917.871999999999,95.437,541.009,538.465,0.0
51716.0,STARLINK-3543,PAYLOAD,2022-10-17 20:31:24,15.08835612,0.0001619,53.216,130.4778,54.1026,306.0116,-4.5007e-05,-1.004e-05,0.0,0 STARLINK-3543,1 51716U 22016C   22290.85514188 -.00001004  00000-0 -45007-4 0  9993,2 51716  53.2160 130.4778 0001619  54.1026 306.0116 15.08835612 36403,6917.894,95.438,540.879,538.639,0.0
51716.0,STARLINK-3543,PAYLOAD,2022-10-18 12:25:16,15.08825592,0.0001639,53.2165,127.5046,55.3412,304.7735,9.5276e-06,-1.36e-06,0.0,0 STARLINK-3543,1 51716U 22016C   22291.51755033 -.00000136  00000-0  95276-5 0  9991,2 51716  53.2165 127.5046 0001639  55.3412 304.7735 15.08825592 37563,6917.924,95.438,540.923,538.656,0.0
51716.0,STARLINK-3543,PAYLOAD,2022-10-18 14:00:39,15.08823469,0.0001668,53.2165,127.2073,55.7249,304.3901,4.4697000000000014e-06,-2.17e-06,0.0,0 STARLINK-3543,1 51716U 22016C   22291.58379234 -.00000217  00000-0  44697-5 0  9994,2 51716  53.2165 127.2073 0001668  55.7249 304.3901 15.08823469 36510,6917.931,95.439,540.95,538.6419999999998,0.0
51716.0,STARLINK-3543,PAYLOAD,2022-10-18 23:32:59,15.08820675,0.000168,53.2164,125.4229,52.9157,307.1989,-2.4091e-05,-6.71e-06,0.0,0 STARLINK-3543,1 51716U 22016C   22291.98123926 -.00000671  00000-0 -24091-4 0  9993,2 51716  53.2164 125.4229 0001680  52.9157 307.1989 15.08820675 37630,6917.939,95.439,540.967,538.6419999999998,0.0
51716.0,STARLINK-3543,PAYLOAD,2022-10-19 15:26:50,15.088244,0.0001612,53.2165,122.4491,40.8665,319.2448,6.581600000000001e-05,7.59e-06,0.0,0 STARLINK-3543,1 51716U 22016C   22292.64364062  .00000759  00000-0  65816-4 0  9990,2 51716  53.2165 122.4491 0001612  40.8665 319.2448 15.08824400 37739,6917.928000000001,95.439,540.908,538.678,0.0
51716.0,STARLINK-3543,PAYLOAD,2022-10-19 21:48:22,15.08832848,0.0001761999999999,53.2165,121.2597,49.3831,310.7314,-3.3544e-06,-3.41e-06,0.0,0 STARLINK-3543,1 51716U 22016C   22292.90859931 -.00000341  00000-0 -33544-5 0  9996,2 51716  53.2165 121.2597 0001762  49.3831 310.7314 15.08832848 36718,6917.901999999999,95.438,540.986,538.548,0.0
51716.0,STARLINK-3543,PAYLOAD,2022-10-20 05:45:18,15.08830395,0.0001771,53.2166,119.7728,51.1243,308.9907,8.7708e-05,1.108e-05,0.0,0 STARLINK-3543,1 51716U 22016C   22293.23980186  .00001108  00000-0  87708-4 0  9990,2 51716  53.2166 119.7728 0001771  51.1243 308.9907 15.08830395 36762,6917.91,95.438,541.0,538.55,0.0
51716.0,STARLINK-3543,PAYLOAD,2022-10-20 18:28:24,15.08831655,0.0001705,53.2164,117.3934,49.874,310.2401,0.00015822,2.23e-05,0.0,0 STARLINK-3543,1 51716U 22016C   22293.76972245  .00002230  00000-0  15822-3 0  9999,2 51716  53.2164 117.3934 0001705  49.8740 310.2401 15.08831655 37908,6917.906,95.438,540.95,538.591,0.0
51716.0,STARLINK-3543,PAYLOAD,2022-10-21 05:36:06,15.08826501,0.0001776999999999,53.216,115.3115,51.1576,308.9575,0.00014689,2.05e-05,0.0,0 STARLINK-3543,1 51716U 22016C   22294.23340969  .00002050  00000-0  14689-3 0  9994,2 51716  53.2160 115.3115 0001777  51.1576 308.9575 15.08826501 37972,6917.922,95.438,541.016,538.557,0.0
51716.0,STARLINK-3543,PAYLOAD,2022-10-21 11:57:39,15.08832419,0.0001791,53.2165,114.1215,50.9041,309.211,6.7583e-05,7.87e-06,0.0,0 STARLINK-3543,1 51716U 22016C   22294.49836872  .00000787  00000-0  67583-4 0  9992,2 51716  53.2165 114.1215 0001791  50.9041 309.2110 15.08832419 36956,6917.904,95.438,541.008,538.53,0.0
51716.0,STARLINK-3543,PAYLOAD,2022-10-21 18:19:11,15.08832655,0.0002011,53.2145,112.932,61.8818,298.2377,0.00015239,2.137e-05,0.0,0 STARLINK-3543,1 51716U 22016C   22294.76332794  .00002137  00000-0  15239-3 0  9997,2 51716  53.2145 112.9320 0002011  61.8818 298.2377 15.08832655 36994,6917.903,95.438,541.159,538.377,0.0
51716.0,STARLINK-3543,PAYLOAD,2022-10-22 18:09:57,15.08850205,0.0001903,53.2154,108.4714,53.6124,306.5043,0.00012793,1.749e-05,0.0,0 STARLINK-3543,1 51716U 22016C   22295.75691733  .00001749  00000-0  12793-3 0  9998,2 51716  53.2154 108.4714 0001903  53.6124 306.5043 15.08850205 37141,6917.849,95.437,541.031,538.398,0.0
